OBJECT_NAME,OBJECT_ID,EPOCH,MEAN_MOTION,ECCENTRICITY,INCLINATION,RA_OF_ASC_NODE,ARG_OF_PERICENTER,MEAN_ANOMALY,EPHEMERIS_TYPE,CLASSIFICATION_TYPE,NORAD_CAT_ID,ELEMENT_SET_NO,REV_AT_EPOCH,BSTAR,MEAN_MOTION_DOT,MEAN_MOTION_DDOT
STARLINK-5045,2022-119Q,2025-02-20T17:01:43.928544,15.08835262,.0001364,53.2167,238.5370,90.3842,269.7307,0,U,53900,999,13402,.8995E-4,.1144E-4,0
STARLINK-5024,2022-119R,2025-02-20T22:05:10.420800,15.08832388,.0000913,53.2158,237.7151,91.9313,268.1784,0,U,53901,999,13405,-.35739E-3,-.597E-4,0
STARLINK-5021,2022-119S,2025-02-20T15:27:41.234400,15.08844478,.0001258,53.2150,188.9442,84.6145,275.4990,0,U,53902,999,13429,-.71999E-4,-.1434E-4,0
STARLINK-5022,2022-119T,2025-02-20T22:10:29.229024,15.08835357,.0001471,53.2168,237.7352,102.2462,257.8695,0,U,53903,999,13363,-.19085E-4,-.592E-5,0
STARLINK-4787,2022-119U,2025-02-20T20:07:11.969472,15.08837440,.0001487,53.2163,237.9193,94.3155,265.8007,0,U,53904,999,13404,-.42629E-4,-.966E-5,0
STARLINK-5003,2022-119V,2025-02-20T18:17:21.826752,15.08821139,.0001326,53.2161,228.8796,95.1773,264.9371,0,U,53905,999,13416,-.12131E-3,-.2217E-4,0
STARLINK-5054,2022-119W,2025-02-20T18:43:45.145632,15.08832116,.0001357,53.2168,228.2946,91.6061,268.5086,0,U,53906,999,13375,-.39345E-4,-.914E-5,0
STARLINK-5063,2022-119X,2025-02-20T22:45:02.075616,16.11453892,.0007134,53.2043,214.1668,304.2826,146.8136,0,U,53907,999,13378,.95811E-3,.1015236E-1,.63499E-3
STARLINK-5057,2022-119Y,2025-02-20T18:06:43.803360,15.08843770,.0001301,53.2163,228.8363,87.2088,272.9053,0,U,53908,999,13416,.87124E-4,.1099E-4,0
STARLINK-4796,2022-119Z,2025-02-20T18:22:38.907840,15.08835288,.0001392,53.2169,228.9000,96.5546,263.5605,0,U,53909,999,13374,.97883E-5,-.132E-5,0
STARLINK-5056,2022-119AA,2025-02-20T16:30:30.500064,15.33014932,.0006309,53.2079,207.3547,359.4072,0.6922,0,U,53910,999,13446,.64159E-3,.20442E-3,0
STARLINK-5048,2022-119AB,2025-02-20T18:12:01.411488,15.08826219,.00013,53.2163,228.8566,91.1548,268.9593,0,U,53911,999,13416,.56569E-4,.612E-5,0
STARLINK-5059,2022-119AC,2025-02-20T18:33:08.485632,15.08834576,.0001211,53.2161,228.2492,90.3909,269.7222,0,U,53912,999,13417,-.15734E-4,-.538E-5,0
STARLINK-5053,2022-119AD,2025-02-20T19:20:53.402496,15.08834397,.000189,53.2166,228.4471,91.1065,269.0144,0,U,53913,999,13417,.28134E-3,.4192E-4,0
STARLINK-5040,2022-119AE,2025-02-20T19:15:35.549856,15.08844367,.0001227,53.2178,228.4305,103.6172,256.4957,0,U,53914,999,13375,-.42671E-4,-.967E-5,0
STARLINK-5017,2022-119AF,2025-02-20T18:01:25.927392,15.08834283,.0001434,53.2164,228.8144,88.5441,271.5715,0,U,53915,999,13416,.29449E-4,.181E-5,0
STARLINK-5051,2022-119AG,2025-02-20T16:49:46.550208,15.08861887,.0001206,53.2177,208.5871,95.1283,264.9847,0,U,53916,999,13445,.2735E-3,.407E-4,0
STARLINK-5036,2022-119AH,2025-02-20T19:26:12.159744,15.08824602,.0001507,53.2169,228.4711,85.7076,274.4088,0,U,53917,999,13417,.23453E-3,.3445E-4,0
STARLINK-5012,2022-119AJ,2025-02-20T19:10:16.561920,15.08833137,.0001368,53.2160,228.4024,91.2979,268.8170,0,U,53918,999,13417,.1649E-3,.2337E-4,0
STARLINK-5023,2022-119AK,2025-02-20T17:29:35.745216,15.08832391,.0001379,53.2168,228.6770,92.7652,267.3498,0,U,53919,999,13416,.1586E-4,-.36E-6,0
STARLINK-5025,2022-119AL,2025-02-20T17:57:29.762496,15.08838707,.0001269,53.2162,228.7882,96.3365,263.7772,0,U,53920,999,13416,.28381E-4,.164E-5,0
STARLINK-5002,2022-119AN,2025-02-20T18:49:03.303264,15.08829676,.0001292,53.2166,228.3112,90.7091,269.4049,0,U,53922,999,13375,-.18215E-3,-.3185E-4,0
STARLINK-5004,2022-119AP,2025-02-20T17:24:17.368128,15.08839346,.0001429,53.2192,228.6573,94.0140,266.1016,0,U,53923,999,13416,-.10548E-4,-.456E-5,0
STARLINK-5001,2022-119AQ,2025-02-20T19:08:17.786112,15.08873149,.0000875,53.2147,223.4063,93.1789,266.9303,0,U,53924,999,13424,.66283E-3,.10286E-3,0
STARLINK-5011,2022-119AR,2025-02-20T18:27:49.934880,15.08836187,.0001367,53.2166,228.2266,89.9433,270.1716,0,U,53925,999,13375,-.23704E-4,-.665E-5,0
STARLINK-5014,2022-119AS,2025-02-20T18:52:22.058688,15.08838350,.0001332,53.2167,223.3383,92.2840,267.8305,0,U,53926,999,13425,.51744E-4,.536E-5,0
STARLINK-5008,2022-119AT,2025-02-21T00:00:02.000160,15.32391848,.000581,53.1965,206.6107,219.7620,4.7307,0,U,53927,999,13407,.21347E-2,.67968E-3,0
STARLINK-5009,2022-119AU,2025-02-20T17:30:53.937216,15.08832680,.0001357,53.2166,218.7029,90.6400,269.4748,0,U,53928,999,13430,-.10104E-3,-.1895E-4,0
STARLINK-5018,2022-119AV,2025-02-20T18:39:55.999872,15.08848127,.0000972,53.2167,228.9622,49.9170,310.1907,0,U,53929,999,13374,-.16536E-4,-.551E-5,0
STARLINK-5010,2022-119AW,2025-02-20T17:09:41.698944,15.08839518,.0001402,53.2172,218.6134,87.0946,273.0207,0,U,53930,999,13430,.19742E-4,.26E-6,0
