STARLINK-5045           
1 53900U 22119Q   25051.70953621  .00001144  00000+0  89950-4 0  9992
2 53900  53.2167 238.5370 0001364  90.3842 269.7307 15.08835262134025
STARLINK-5024           
1 53901U 22119R   25051.92025950 -.00005970  00000+0 -35739-3 0  9990
2 53901  53.2158 237.7151 0000913  91.9313 268.1784 15.08832388134054
STARLINK-5021           
1 53902U 22119S   25051.64422725 -.00001434  00000+0 -71999-4 0  9991
2 53902  53.2150 188.9442 0001258  84.6145 275.4990 15.08844478134291
STARLINK-5022           
1 53903U 22119T   25051.92394941 -.00000592  00000+0 -19085-4 0  9993
2 53903  53.2168 237.7352 0001471 102.2462 257.8695 15.08835357133639
STARLINK-4787           
1 53904U 22119U   25051.83833298 -.00000966  00000+0 -42629-4 0  9992
2 53904  53.2163 237.9193 0001487  94.3155 265.8007 15.08837440134044
STARLINK-5003           
1 53905U 22119V   25051.76205818 -.00002217  00000+0 -12131-3 0  9991
2 53905  53.2161 228.8796 0001326  95.1773 264.9371 15.08821139134163
STARLINK-5054           
1 53906U 22119W   25051.78038363 -.00000914  00000+0 -39345-4 0  9992
2 53906  53.2168 228.2946 0001357  91.6061 268.5086 15.08832116133751
STARLINK-5063           
1 53907U 22119X   25051.94794069  .01015236  63499-3  95811-3 0  9999
2 53907  53.2043 214.1668 0007134 304.2826 146.8136 16.11453892133782
STARLINK-5057           
1 53908U 22119Y   25051.75467365  .00001099  00000+0  87124-4 0  9990
2 53908  53.2163 228.8363 0001301  87.2088 272.9053 15.08843770134163
STARLINK-4796           
1 53909U 22119Z   25051.76572810 -.00000132  00000+0  97883-5 0  9996
2 53909  53.2169 228.9000 0001392  96.5546 263.5605 15.08835288133748
STARLINK-5056           
1 53910U 22119AA  25051.68785301  .00020442  00000+0  64159-3 0  9993
2 53910  53.2079 207.3547 0006309 359.4072   0.6922 15.33014932134460
STARLINK-5048           
1 53911U 22119AB  25051.75834967  .00000612  00000+0  56569-4 0  9999
2 53911  53.2163 228.8566 0001300  91.1548 268.9593 15.08826219134169
STARLINK-5059           
1 53912U 22119AC  25051.77301488 -.00000538  00000+0 -15734-4 0  9997
2 53912  53.2161 228.2492 0001211  90.3909 269.7222 15.08834576134177
STARLINK-5053           
1 53913U 22119AD  25051.80617364  .00004192  00000+0  28134-3 0  9990
2 53913  53.2166 228.4471 0001890  91.1065 269.0144 15.08834397134174
STARLINK-5040           
1 53914U 22119AE  25051.80249479 -.00000967  00000+0 -42671-4 0  9990
2 53914  53.2178 228.4305 0001227 103.6172 256.4957 15.08844367133759
STARLINK-5017           
1 53915U 22119AF  25051.75099453  .00000181  00000+0  29449-4 0  9994
2 53915  53.2164 228.8144 0001434  88.5441 271.5715 15.08834283134162
STARLINK-5051           
1 53916U 22119AG  25051.70123322  .00004070  00000+0  27350-3 0  9992
2 53916  53.2177 208.5871 0001206  95.1283 264.9847 15.08861887134458
STARLINK-5036           
1 53917U 22119AH  25051.80986296  .00003445  00000+0  23453-3 0  9996
2 53917  53.2169 228.4711 0001507  85.7076 274.4088 15.08824602134179
STARLINK-5012           
1 53918U 22119AJ  25051.79880280  .00002337  00000+0  16490-3 0  9993
2 53918  53.2160 228.4024 0001368  91.2979 268.8170 15.08833137134179
STARLINK-5023           
1 53919U 22119AK  25051.72888594 -.00000036  00000+0  15860-4 0  9999
2 53919  53.2168 228.6770 0001379  92.7652 267.3498 15.08832391134161
STARLINK-5025           
1 53920U 22119AL  25051.74826114  .00000164  00000+0  28381-4 0  9996
2 53920  53.2162 228.7882 0001269  96.3365 263.7772 15.08838707134163
STARLINK-5002           
1 53922U 22119AN  25051.78406601 -.00003185  00000+0 -18215-3 0  9999
2 53922  53.2166 228.3112 0001292  90.7091 269.4049 15.08829676133750
STARLINK-5004           
1 53923U 22119AP  25051.72520102 -.00000456  00000+0 -10548-4 0  9997
2 53923  53.2192 228.6573 0001429  94.0140 266.1016 15.08839346134167
STARLINK-5001           
1 53924U 22119AQ  25051.79742808  .00010286  00000+0  66283-3 0  9990
2 53924  53.2147 223.4063 0000875  93.1789 266.9303 15.08873149134243
STARLINK-5011           
1 53925U 22119AR  25051.76932795 -.00000665  00000+0 -23704-4 0  9998
2 53925  53.2166 228.2266 0001367  89.9433 270.1716 15.08836187133750
STARLINK-5014           
1 53926U 22119AS  25051.78636642  .00000536  00000+0  51744-4 0  9993
2 53926  53.2167 223.3383 0001332  92.2840 267.8305 15.08838350134256
STARLINK-5008           
1 53927U 22119AT  25052.00002315  .00067968  00000+0  21347-2 0  9990
2 53927  53.1965 206.6107 0005810 219.7620   4.7307 15.32391848134070
STARLINK-5009           
1 53928U 22119AU  25051.72979094 -.00001895  00000+0 -10104-3 0  9995
2 53928  53.2166 218.7029 0001357  90.6400 269.4748 15.08832680134308
STARLINK-5018           
1 53929U 22119AV  25051.77773148 -.00000551  00000+0 -16536-4 0  9997
2 53929  53.2167 228.9622 0000972  49.9170 310.1907 15.08848127133746
STARLINK-5010           
1 53930U 22119AW  25051.71506596  .00000026  00000+0  19742-4 0  9991
2 53930  53.2172 218.6134 0001402  87.0946 273.0207 15.08839518134308
